COMMENT,ORIGINATOR,NORAD_CAT_ID,OBJECT_NAME,OBJECT_TYPE,CLASSIFICATION_TYPE,INTLDES,EPOCH,EPOCH_MICROSECONDS,MEAN_MOTION,ECCENTRICITY,INCLINATION,RA_OF_ASC_NODE,ARG_OF_PERICENTER,MEAN_ANOMALY,EPHEMERIS_TYPE,ELEMENT_SET_NO,REV_AT_EPOCH,BSTAR,MEAN_MOTION_DOT,MEAN_MOTION_DDOT,FILE,TLE_LINE0,TLE_LINE1,TLE_LINE2,OBJECT_ID,OBJECT_NUMBER,SEMIMAJOR_AXIS,PERIOD,APOGEE,PERIGEE,DECAYED
"GENERATED VIA SPACETRACK.ORG API","18 SPCS","55096","SPACEBEE-161","PAYLOAD","U","23001CR","2023-09-14 15:18:27","470880","15.23239353","0.0014673","97.468","317.0989","54.8756","305.3853","0","999","3870","0.001045","0.00024809","0","4006631","0 SPACEBEE-161","1 55096U 23001CR  23257.63781795  .00024809  00000-0  10450-2 0  9991","2 55096  97.4680 317.0989 0014673  54.8756 305.3853 15.23239353 38705","2023-001CR","55096","6874.214","94.535","506.166","485.993","0"
"GENERATED VIA SPACETRACK.ORG API","18 SPCS","55096","SPACEBEE-161","PAYLOAD","U","23001CR","2023-09-15 03:55:13","150560","15.23263611","0.0014663","97.4676","317.6219","53.3164","306.9417","0","999","3878","0.001092","0.0002595","0","4006815","0 SPACEBEE-161","1 55096U 23001CR  23258.16334665  .00025950  00000-0  10920-2 0  9990","2 55096  97.4676 317.6219 0014663  53.3164 306.9417 15.23263611 38783","2023-001CR","55096","6874.141","94.534","506.086","485.927","0"
"GENERATED VIA SPACETRACK.ORG API","18 SPCS","55096","SPACEBEE-161","PAYLOAD","U","23001CR","2023-09-16 01:59:31","427232","15.23299915","0.0014552","97.4672","318.5369","50.1804","310.0711","0","999","3892","0.00089348","0.00021228","0","4007655","0 SPACEBEE-161","1 55096U 23001CR  23259.08300263  .00021228  00000-0  89348-3 0  9994","2 55096  97.4672 318.5369 0014552  50.1804 310.0711 15.23299915 38923","2023-001CR","55096","6874.032","94.532","505.900","485.894","0"
"GENERATED VIA SPACETRACK.ORG API","18 SPCS","55096","SPACEBEE-161","PAYLOAD","U","23001CR","2023-09-16 09:52:28","890336","15.23313897","0.0014467","97.467","318.8634","49.1077","311.1411","0","999","3897","0.00091825","0.00021829","0","4008138","0 SPACEBEE-161","1 55096U 23001CR  23259.41144549  .00021829  00000-0  91825-3 0  9994","2 55096  97.4670 318.8634 0014467  49.1077 311.1411 15.23313897 38974","2023-001CR","55096","6873.990","94.531","505.800","485.911","0"
"GENERATED VIA SPACETRACK.ORG API","18 SPCS","55096","SPACEBEE-161","PAYLOAD","U","23001CR","2023-09-17 03:12:58","553856","15.23341836","0.0014414","97.4665","319.582","46.2838","313.959","0","999","3908","0.00093575","0.00022265","0","4008631","0 SPACEBEE-161","1 55096U 23001CR  23260.13401104  .00022265  00000-0  93575-3 0  9997","2 55096  97.4665 319.5820 0014414  46.2838 313.9590 15.23341836 39083","2023-001CR","55096","6873.906","94.529","505.679","485.863","0"
"GENERATED VIA SPACETRACK.ORG API","18 SPCS","55096","SPACEBEE-161","PAYLOAD","U","23001CR","2023-09-17 03:12:58","553856","15.23341836","0.0014414","97.4665","319.582","46.2838","313.959","0","999","3908","0.00093575","0.00022265","0","4008915","0 SPACEBEE-161","1 55096U 23001CR  23260.13401104  .00022265  00000-0  93575-3 0  9997","2 55096  97.4665 319.5820 0014414  46.2838 313.9590 15.23341836 39083","2023-001CR","55096","6873.906","94.529","505.679","485.863","0"
"GENERATED VIA SPACETRACK.ORG API","18 SPCS","55096","SPACEBEE-161","PAYLOAD","U","23001CR","2023-09-17 15:49:41","72160","15.23375852","0.0014303","97.4664","320.1047","44.6705","315.5681","0","999","3916","0.0015206","0.00036329","0","4009098","0 SPACEBEE-161","1 55096U 23001CR  23260.65950315  .00036329  00000-0  15206-2 0  9997","2 55096  97.4664 320.1047 0014303  44.6705 315.5681 15.23375852 39166","2023-001CR","55096","6873.804","94.527","505.500","485.837","0"
"GENERATED VIA SPACETRACK.ORG API","18 SPCS","55096","SPACEBEE-161","PAYLOAD","U","23001CR","2023-09-18 02:51:47","678976","15.23395293","0.0014315","97.4663","320.5624","42.9194","317.3157","0","999","3923","0.0014244","0.00034035","0","4009432","0 SPACEBEE-161","1 55096U 23001CR  23261.11930184  .00034035  00000-0  14244-2 0  9994","2 55096  97.4663 320.5624 0014315  42.9194 317.3157 15.23395293 39233","2023-001CR","55096","6873.745","94.526","505.450","485.771","0"
"GENERATED VIA SPACETRACK.ORG API","18 SPCS","55096","SPACEBEE-161","PAYLOAD","U","23001CR","2023-09-18 02:51:47","678976","15.23395293","0.0014315","97.4663","320.5624","42.9194","317.3157","0","999","3923","0.0014244","0.00034035","0","4009863","0 SPACEBEE-161","1 55096U 23001CR  23261.11930184  .00034035  00000-0  14244-2 0  9994","2 55096  97.4663 320.5624 0014315  42.9194 317.3157 15.23395293 39233","2023-001CR","55096","6873.745","94.526","505.450","485.771","0"
"GENERATED VIA SPACETRACK.ORG API","18 SPCS","55096","SPACEBEE-161","PAYLOAD","U","23001CR","2023-09-18 17:03:03","712032","15.23424267","0.0014261","97.4664","321.1504","41.1093","319.1215","0","999","3932","0.0011856","0.0002832","0","4010023","0 SPACEBEE-161","1 55096U 23001CR  23261.71045963  .00028320  00000-0  11856-2 0  9998","2 55096  97.4664 321.1504 0014261  41.1093 319.1215 15.23424267 39326","2023-001CR","55096","6873.658","94.524","505.326","485.721","0"
"GENERATED VIA SPACETRACK.ORG API","18 SPCS","55096","SPACEBEE-161","PAYLOAD","U","23001CR","2023-09-18 17:03:03","712032","15.23424267","0.0014261","97.4664","321.1504","41.1093","319.1215","0","999","3932","0.0011856","0.0002832","0","4010122","0 SPACEBEE-161","1 55096U 23001CR  23261.71045963  .00028320  00000-0  11856-2 0  9998","2 55096  97.4664 321.1504 0014261  41.1093 319.1215 15.23424267 39326","2023-001CR","55096","6873.658","94.524","505.326","485.721","0"
"GENERATED VIA SPACETRACK.ORG API","18 SPCS","55096","SPACEBEE-161","PAYLOAD","U","23001CR","2023-09-19 16:41:47","340384","15.23496647","0.0014152","97.4662","322.1307","38.2543","321.9695","0","999","3947","0.0012151","0.0002909","0","4011005","0 SPACEBEE-161","1 55096U 23001CR  23262.69568681  .00029090  00000-0  12151-2 0  9997","2 55096  97.4662 322.1307 0014152  38.2543 321.9695 15.23496647 39472","2023-001CR","55096","6873.440","94.519","505.033","485.578","0"
"GENERATED VIA SPACETRACK.ORG API","18 SPCS","55096","SPACEBEE-161","PAYLOAD","U","23001CR","2023-09-20 10:02:09","118176","15.23539998","0.0014105","97.466","322.8496","35.7195","324.4982","0","999","3958","0.0011971","0.00028693","0","4011740","0 SPACEBEE-161","1 55096U 23001CR  23263.41816109  .00028693  00000-0  11971-2 0  9996","2 55096  97.4660 322.8496 0014105  35.7195 324.4982 15.23539998 39585","2023-001CR","55096","6873.310","94.517","504.870","485.480","0"
"GENERATED VIA SPACETRACK.ORG API","18 SPCS","55096","SPACEBEE-161","PAYLOAD","U","23001CR","2023-09-20 17:55:02","72064","15.23557462","0.0014029","97.4657","323.1762","34.5071","325.7073","0","999","3963","0.0011017","0.00026405","0","4011935","0 SPACEBEE-161","1 55096U 23001CR  23263.74655176  .00026405  00000-0  11017-2 0  9997","2 55096  97.4657 323.1762 0014029  34.5071 325.7073 15.23557462 39633","2023-001CR","55096","6873.258","94.516","504.765","485.480","0"
"GENERATED VIA SPACETRACK.ORG API","18 SPCS","55096","SPACEBEE-161","PAYLOAD","U","23001CR","2023-09-20 17:55:02","72064","15.23557462","0.0014029","97.4657","323.1762","34.5071","325.7073","0","999","3963","0.0011017","0.00026405","0","4012054","0 SPACEBEE-161","1 55096U 23001CR  23263.74655176  .00026405  00000-0  11017-2 0  9997","2 55096  97.4657 323.1762 0014029  34.5071 325.7073 15.23557462 39633","2023-001CR","55096","6873.258","94.516","504.765","485.480","0"
"GENERATED VIA SPACETRACK.ORG API","18 SPCS","55096","SPACEBEE-161","PAYLOAD","U","23001CR","2023-09-21 09:40:47","257536","15.2358593","0.0013914","97.4656","323.8292","32.0804","328.1277","0","999","3973","0.0010572","0.00025353","0","4012680","0 SPACEBEE-161","1 55096U 23001CR  23264.40332474  .00025353  00000-0  10572-2 0  9990","2 55096  97.4656 323.8292 0013914  32.0804 328.1277 15.23585930 39731","2023-001CR","55096","6873.172","94.514","504.600","485.474","0"
"GENERATED VIA SPACETRACK.ORG API","18 SPCS","55096","SPACEBEE-161","PAYLOAD","U","23001CR","2023-09-21 17:33:39","469248","15.23598234","0.0013875","97.4657","324.1559","31.0399","329.1655","0","999","3978","0.0009489","0.00022748","0","4012853","0 SPACEBEE-161","1 55096U 23001CR  23264.73170682  .00022748  00000-0  94890-3 0  9998","2 55096  97.4657 324.1559 0013875  31.0399 329.1655 15.23598234 39783","2023-001CR","55096","6873.135","94.513","504.536","485.463","0"
"GENERATED VIA SPACETRACK.ORG API","18 SPCS","55096","SPACEBEE-161","PAYLOAD","U","23001CR","2023-09-21 17:33:39","469248","15.23598234","0.0013875","97.4657","324.1559","31.0399","329.1655","0","999","3978","0.0009489","0.00022748","0","4012956","0 SPACEBEE-161","1 55096U 23001CR  23264.73170682  .00022748  00000-0  94890-3 0  9998","2 55096  97.4657 324.1559 0013875  31.0399 329.1655 15.23598234 39783","2023-001CR","55096","6873.135","94.513","504.536","485.463","0"
"GENERATED VIA SPACETRACK.ORG API","18 SPCS","55096","SPACEBEE-161","PAYLOAD","U","23001CR","2023-09-22 03:01:05","618208","15.23619859","0.0013868","97.4657","324.5482","29.2301","330.9709","0","999","3984","0.0010336","0.00024808","0","4013584","0 SPACEBEE-161","1 55096U 23001CR  23265.12575947  .00024808  00000-0  10336-2 0  9996","2 55096  97.4657 324.5482 0013868  29.2301 330.9709 15.23619859 39840","2023-001CR","55096","6873.070","94.512","504.466","485.403","0"
"GENERATED VIA SPACETRACK.ORG API","18 SPCS","55096","SPACEBEE-161","PAYLOAD","U","23001CR","2023-09-22 21:55:56","671104","15.23661354","0.0013795","97.4658","325.3322","26.5702","333.6239","0","999","3996","0.0011809","0.00028401","0","4013859","0 SPACEBEE-161","1 55096U 23001CR  23265.91385036  .00028401  00000-0  11809-2 0  9990","2 55096  97.4658 325.3322 0013795  26.5702 333.6239 15.23661354 39965","2023-001CR","55096","6872.945","94.509","504.291","485.329","0"
